{
    "links": {
        "self": "http://www.neowsapp.com/rest/v1/neo/3989236?api_key=iIulBulltgU6a56xZRHN4H3l9WmuAYTsLGpBGhQ2"
    },
    "id": "3989236",
    "neo_reference_id": "3989236",
    "name": "(2020 BG10)",
    "designation": "2020 BG10",
    "nasa_jpl_url": "http://ssd.jpl.nasa.gov/sbdb.cgi?sstr=3989236",
    "absolute_magnitude_h": 25.648,
    "estimated_diameter": {
        "kilometers": {
            "estimated_diameter_min": 0.0197221827,
            "estimated_diameter_max": 0.0441001411
        },
        "meters": {
            "estimated_diameter_min": 19.7221826527,
            "estimated_diameter_max": 44.100141076
        },
        "miles": {
            "estimated_diameter_min": 0.0122547924,
            "estimated_diameter_max": 0.0274025488
        },
        "feet": {
            "estimated_diameter_min": 64.7053257341,
            "estimated_diameter_max": 144.6855068478
        }
    },
    "is_potentially_hazardous_asteroid": false,
    "close_approach_data": [
        {
            "close_approach_date": "2020-02-15",
            "close_approach_date_full": "2020-Feb-15 19:48",
            "epoch_date_close_approach": 1581796080000,
            "relative_velocity": {
                "kilometers_per_second": "5.9715926477",
                "kilometers_per_hour": "21497.7335315645",
                "miles_per_hour": "13357.8555935435"
            },
            "miss_distance": {
                "astronomical": "0.0971184898",
                "lunar": "37.7790925322",
                "kilometers": "14528719.211696726",
                "miles": "9027727.4968617788"
            },
            "orbiting_body": "Earth"
        }
    ],
    "orbital_data": {
        "orbit_id": "3",
        "orbit_determination_date": "2020-02-16 05:09:41",
        "first_observation_date": "2020-01-25",
        "last_observation_date": "2020-02-15",
        "data_arc_in_days": 21,
        "observations_used": 20,
        "orbit_uncertainty": "7",
        "minimum_orbit_intersection": ".0937537",
        "jupiter_tisserand_invariant": "4.125",
        "epoch_osculation": "2459000.5",
        "eccentricity": ".3729605920693775",
        "semi_major_axis": "1.689657829484006",
        "inclination": "8.589187442583983",
        "ascending_node_longitude": "126.5420357561356",
        "orbital_period": "802.2257066836056",
        "perihelion_distance": "1.059482045004992",
        "perihelion_argument": "32.1802912026595",
        "aphelion_distance": "2.31983361396302",
        "perihelion_time": "2458908.293022633901",
        "mean_anomaly": "41.37802064336899",
        "mean_motion": ".4487515134465548",
        "equinox": "J2000",
        "orbit_class": {
            "orbit_class_type": "AMO",
            "orbit_class_description": "Near-Earth asteroid orbits similar to that of 1221 Amor",
            "orbit_class_range": "1.017 AU < q (perihelion) < 1.3 AU"
        }
    },
    "is_sentry_object": false
}